[{"OBJECT_NAME":"CELESTIS-17 & SHERPA-FX1","OBJECT_ID":"2021-006CB","EPOCH":"2026-03-09T15:26:05.078112","MEAN_MOTION":15.30994801,"ECCENTRICITY":0.000663,"INCLINATION":97.2397,"RA_OF_ASC_NODE":112.1052,"ARG_OF_PERICENTER":178.1385,"MEAN_ANOMALY":181.9882,"EPHEMERIS_TYPE":0,"CLASSIFICATION_TYPE":"U","NORAD_CAT_ID":47486,"ELEMENT_SET_NO":999,"REV_AT_EPOCH":28406,"BSTAR":0.00024301,"MEAN_MOTION_DOT":7.207e-5,"MEAN_MOTION_DDOT":0},{"OBJECT_NAME":"STARLINK-32208","OBJECT_ID":"2024-150R","EPOCH":"2026-03-09T22:26:08.066112","MEAN_MOTION":15.30171543,"ECCENTRICITY":0.00012618,"INCLINATION":53.1593,"RA_OF_ASC_NODE":306.2562,"ARG_OF_PERICENTER":101.6519,"MEAN_ANOMALY":258.4623,"EPHEMERIS_TYPE":0,"CLASSIFICATION_TYPE":"U","NORAD_CAT_ID":60598,"ELEMENT_SET_NO":999,"REV_AT_EPOCH":8807,"BSTAR":1.8879926e-5,"MEAN_MOTION_DOT":2.0e-6,"MEAN_MOTION_DDOT":0}]
